{
    "links": {
        "self": "http://www.neowsapp.com/rest/v1/neo/3666975?api_key=iIulBulltgU6a56xZRHN4H3l9WmuAYTsLGpBGhQ2"
    },
    "id": "3666975",
    "neo_reference_id": "3666975",
    "name": "(2014 GF17)",
    "designation": "2014 GF17",
    "nasa_jpl_url": "http://ssd.jpl.nasa.gov/sbdb.cgi?sstr=3666975",
    "absolute_magnitude_h": 23.1,
    "estimated_diameter": {
        "kilometers": {
            "estimated_diameter_min": 0.063760979,
            "estimated_diameter_max": 0.1425738833
        },
        "meters": {
            "estimated_diameter_min": 63.7609789875,
            "estimated_diameter_max": 142.5738833281
        },
        "miles": {
            "estimated_diameter_min": 0.0396192233,
            "estimated_diameter_max": 0.0885912765
        },
        "feet": {
            "estimated_diameter_min": 209.1895703015,
            "estimated_diameter_max": 467.7620993781
        }
    },
    "is_potentially_hazardous_asteroid": false,
    "close_approach_data": [
        {
            "close_approach_date": "2014-04-02",
            "close_approach_date_full": "2014-Apr-02 13:25",
            "epoch_date_close_approach": 1396445100000,
            "relative_velocity": {
                "kilometers_per_second": "8.5909705608",
                "kilometers_per_hour": "30927.4940190542",
                "miles_per_hour": "19217.1420475618"
            },
            "miss_distance": {
                "astronomical": "0.2848295857",
                "lunar": "110.7987088373",
                "kilometers": "42609899.333702459",
                "miles": "26476563.7113895742"
            },
            "orbiting_body": "Earth"
        }
    ],
    "orbital_data": {
        "orbit_id": "10",
        "orbit_determination_date": "2017-04-06 08:41:45",
        "first_observation_date": "2014-04-04",
        "last_observation_date": "2014-04-26",
        "data_arc_in_days": 22,
        "observations_used": 26,
        "orbit_uncertainty": "7",
        "minimum_orbit_intersection": ".28486",
        "jupiter_tisserand_invariant": "3.401",
        "epoch_osculation": "2459000.5",
        "eccentricity": ".4447994454499002",
        "semi_major_axis": "2.310004644184074",
        "inclination": "15.77075954032854",
        "ascending_node_longitude": "195.245552577594",
        "orbital_period": "1282.382865002108",
        "perihelion_distance": "1.282515859464304",
        "perihelion_argument": "351.6779707050315",
        "aphelion_distance": "3.337493428903844",
        "perihelion_time": "2459307.530659433447",
        "mean_anomaly": "273.8080830518122",
        "mean_motion": ".2807273941541695",
        "equinox": "J2000",
        "orbit_class": {
            "orbit_class_type": "AMO",
            "orbit_class_description": "Near-Earth asteroid orbits similar to that of 1221 Amor",
            "orbit_class_range": "1.017 AU < q (perihelion) < 1.3 AU"
        }
    },
    "is_sentry_object": false
}